ONEWEB-0685             
1 54679U 22166AP  25205.55420554  .00000059  00000+0  11182-3 0  9991
2 54679  87.9275 309.3520 0002001 108.1398 251.9954 13.21825163128138
ONEWEB-0533             
1 55141U 23004B   25205.56138760  .00000220  00000+0  57481-3 0  9996
2 55141  87.8859  55.7988 0001836  90.3898 269.7441 13.12442862125082
ONEWEB-0541             
1 55142U 23004C   25205.64026041  .00000044  00000+0  89604-4 0  9991
2 55142  87.8820  86.3336 0001789  79.7098 280.4231 13.11418769123014
ONEWEB-0543             
1 55143U 23004D   25205.52908138 -.00000004  00000+0 -43503-4 0  9991
2 55143  87.9109  40.6096 0002100  88.8806 271.2567 13.18688469126519
ONEWEB-0544             
1 55144U 23004E   25205.59835137 -.00000017  00000+0 -75910-4 0  9998
2 55144  87.9108  40.5858 0001970  82.6434 277.4922 13.18686355126523
